{
  "type": "FeatureCollection",
  "features": [
    {
      "type": "Feature",
      "properties": {
        "norad_id": 66563,
        "name": "STARLINK-35437",
        "group": "last-30-days",
        "lat": 42.95275881764923,
        "lon": -163.68371449823312,
        "alt_km": 408.16364656510996,
        "timestamp": "2025-12-14T20:40:30.515013+00:00",
        "meta_object_name": "STARLINK-35437",
        "meta_object_id": "2025-268G",
        "meta_epoch": "2025-12-14T01:44:47.151744",
        "meta_mean_motion": 15.50576271,
        "meta_eccentricity": 8.549e-05,
        "meta_inclination": 42.9992,
        "meta_ra_of_asc_node": 113.3749,
        "meta_arg_of_pericenter": 268.479,
        "meta_mean_anomaly": 91.5972,
        "meta_ephemeris_type": 0,
        "meta_classification_type": "U",
        "meta_norad_cat_id": 66563,
        "meta_element_set_no": 999,
        "meta_rev_at_epoch": 483,
        "meta_bstar": 0.0022627282,
        "meta_mean_motion_dot": 0.00134696,
        "meta_mean_motion_ddot": 0,
        "tle_line1": "1 66563U 25268G   25348.07276796  .00134696  00000+0  22627-2 0  9994",
        "tle_line2": "2 66563  42.9992 113.3749 0000854 268.4790  91.5972 15.50576271  4831"
      },
      "geometry": {
        "type": "Point",
        "coordinates": [
          -163.68371449823312,
          42.95275881764923
        ]
      }
    },
    {
      "type": "Feature",
      "properties": {
        "norad_id": 66564,
        "name": "STARLINK-35358",
        "group": "last-30-days",
        "lat": 42.978247320178085,
        "lon": -160.9803277144833,
        "alt_km": 408.41718462024073,
        "timestamp": "2025-12-14T20:40:30.515025+00:00",
        "meta_object_name": "STARLINK-35358",
        "meta_object_id": "2025-268H",
        "meta_epoch": "2025-12-14T01:44:17.239200",
        "meta_mean_motion": 15.50586781,
        "meta_eccentricity": 0.00013439,
        "meta_inclination": 42.999,
        "meta_ra_of_asc_node": 113.3723,
        "meta_arg_of_pericenter": 271.6128,
        "meta_mean_anomaly": 88.4578,
        "meta_ephemeris_type": 0,
        "meta_classification_type": "U",
        "meta_norad_cat_id": 66564,
        "meta_element_set_no": 999,
        "meta_rev_at_epoch": 483,
        "meta_bstar": 0.0024037033,
        "meta_mean_motion_dot": 0.00143323,
        "meta_mean_motion_ddot": 0,
        "tle_line1": "1 66564U 25268H   25348.07242175  .00143323  00000+0  24037-2 0  9993",
        "tle_line2": "2 66564  42.9990 113.3723 0001343 271.6128  88.4578 15.50586781  4831"
      },
      "geometry": {
        "type": "Point",
        "coordinates": [
          -160.9803277144833,
          42.978247320178085
        ]
      }
    },
    {
      "type": "Feature",
      "properties": {
        "norad_id": 66565,
        "name": "STARLINK-35893",
        "group": "last-30-days",
        "lat": 42.94672140793831,
        "lon": -158.51171188560306,
        "alt_km": 408.6323063230848,
        "timestamp": "2025-12-14T20:40:30.515036+00:00",
        "meta_object_name": "STARLINK-35893",
        "meta_object_id": "2025-268J",
        "meta_epoch": "2025-12-14T01:43:47.566848",
        "meta_mean_motion": 15.50570727,
        "meta_eccentricity": 0.00014078,
        "meta_inclination": 42.9998,
        "meta_ra_of_asc_node": 113.3696,
        "meta_arg_of_pericenter": 281.3662,
        "meta_mean_anomaly": 78.704,
        "meta_ephemeris_type": 0,
        "meta_classification_type": "U",
        "meta_norad_cat_id": 66565,
        "meta_element_set_no": 999,
        "meta_rev_at_epoch": 483,
        "meta_bstar": 0.0018912957,
        "meta_mean_motion_dot": 0.00112182,
        "meta_mean_motion_ddot": 0,
        "tle_line1": "1 66565U 25268J   25348.07207832  .00112182  00000+0  18913-2 0  9990",
        "tle_line2": "2 66565  42.9998 113.3696 0001407 281.3662  78.7040 15.50570727  4830"
      },
      "geometry": {
        "type": "Point",
        "coordinates": [
          -158.51171188560306,
          42.94672140793831
        ]
      }
    },
    {
      "type": "Feature",
      "properties": {
        "norad_id": 66566,
        "name": "STARLINK-35871",
        "group": "last-30-days",
        "lat": 42.84707637351147,
        "lon": -155.75616344770856,
        "alt_km": 408.4712926873581,
        "timestamp": "2025-12-14T20:40:30.515046+00:00",
        "meta_object_name": "STARLINK-35871",
        "meta_object_id": "2025-268K",
        "meta_epoch": "2025-12-14T01:43:17.772672",
        "meta_mean_motion": 15.50587767,
        "meta_eccentricity": 0.00013486,
        "meta_inclination": 42.9993,
        "meta_ra_of_asc_node": 113.3665,
        "meta_arg_of_pericenter": 261.2241,
        "meta_mean_anomaly": 98.8466,
        "meta_ephemeris_type": 0,
        "meta_classification_type": "U",
        "meta_norad_cat_id": 66566,
        "meta_element_set_no": 999,
        "meta_rev_at_epoch": 483,
        "meta_bstar": 0.0022775912,
        "meta_mean_motion_dot": 0.00135656,
        "meta_mean_motion_ddot": 0,
        "tle_line1": "1 66566U 25268K   25348.07173348  .00135656  00000+0  22776-2 0  9998",
        "tle_line2": "2 66566  42.9993 113.3665 0001348 261.2241  98.8466 15.50587767  4833"
      },
      "geometry": {
        "type": "Point",
        "coordinates": [
          -155.75616344770856,
          42.84707637351147
        ]
      }
    },
    {
      "type": "Feature",
      "properties": {
        "norad_id": 66567,
        "name": "STARLINK-35825",
        "group": "last-30-days",
        "lat": 42.69808320500176,
        "lon": -153.2518915057727,
        "alt_km": 408.27177226605545,
        "timestamp": "2025-12-14T20:40:30.515060+00:00",
        "meta_object_name": "STARLINK-35825",
        "meta_object_id": "2025-268L",
        "meta_epoch": "2025-12-14T01:42:48.512448",
        "meta_mean_motion": 15.50579443,
        "meta_eccentricity": 9.118e-05,
        "meta_inclination": 42.9984,
        "meta_ra_of_asc_node": 113.3641,
        "meta_arg_of_pericenter": 288.5977,
        "meta_mean_anomaly": 71.4784,
        "meta_ephemeris_type": 0,
        "meta_classification_type": "U",
        "meta_norad_cat_id": 66567,
        "meta_element_set_no": 999,
        "meta_rev_at_epoch": 483,
        "meta_bstar": 0.0020129356,
        "meta_mean_motion_dot": 0.00119569,
        "meta_mean_motion_ddot": 0,
        "tle_line1": "1 66567U 25268L   25348.07139482  .00119569  00000+0  20129-2 0  9995",
        "tle_line2": "2 66567  42.9984 113.3641 0000911 288.5977  71.4784 15.50579443  4833"
      },
      "geometry": {
        "type": "Point",
        "coordinates": [
          -153.2518915057727,
          42.69808320500176
        ]
      }
    },
    {
      "type": "Feature",
      "properties": {
        "norad_id": 66568,
        "name": "STARLINK-35803",
        "group": "last-30-days",
        "lat": 42.490033705462515,
        "lon": -150.69405614127416,
        "alt_km": 408.81026348089836,
        "timestamp": "2025-12-14T20:40:30.515073+00:00",
        "meta_object_name": "STARLINK-35803",
        "meta_object_id": "2025-268M",
        "meta_epoch": "2025-12-14T01:42:18.597312",
        "meta_mean_motion": 15.5057907,
        "meta_eccentricity": 0.00015375,
        "meta_inclination": 42.9993,
        "meta_ra_of_asc_node": 113.3602,
        "meta_arg_of_pericenter": 267.368,
        "meta_mean_anomaly": 92.7004,
        "meta_ephemeris_type": 0,
        "meta_classification_type": "U",
        "meta_norad_cat_id": 66568,
        "meta_element_set_no": 999,
        "meta_rev_at_epoch": 483,
        "meta_bstar": 0.0018208128,
        "meta_mean_motion_dot": 0.00107962,
        "meta_mean_motion_ddot": 0,
        "tle_line1": "1 66568U 25268M   25348.07104858  .00107962  00000+0  18208-2 0  9994",
        "tle_line2": "2 66568  42.9993 113.3602 0001537 267.3680  92.7004 15.50579070  4839"
      },
      "geometry": {
        "type": "Point",
        "coordinates": [
          -150.69405614127416,
          42.490033705462515
        ]
      }
    },
    {
      "type": "Feature",
      "properties": {
        "norad_id": 66569,
        "name": "STARLINK-35835",
        "group": "last-30-days",
        "lat": 42.21906697265811,
        "lon": -148.10595477167286,
        "alt_km": 408.7744041296737,
        "timestamp": "2025-12-14T20:40:30.515083+00:00",
        "meta_object_name": "STARLINK-35835",
        "meta_object_id": "2025-268N",
        "meta_epoch": "2025-12-14T01:41:49.019136",
        "meta_mean_motion": 15.50577342,
        "meta_eccentricity": 0.00014813,
        "meta_inclination": 42.9997,
        "meta_ra_of_asc_node": 113.357,
        "meta_arg_of_pericenter": 280.6142,
        "meta_mean_anomaly": 79.4551,
        "meta_ephemeris_type": 0,
        "meta_classification_type": "U",
        "meta_norad_cat_id": 66569,
        "meta_element_set_no": 999,
        "meta_rev_at_epoch": 483,
        "meta_bstar": 0.0019724573,
        "meta_mean_motion_dot": 0.00117112,
        "meta_mean_motion_ddot": 0,
        "tle_line1": "1 66569U 25268N   25348.07070624  .00117112  00000+0  19725-2 0  9991",
        "tle_line2": "2 66569  42.9997 113.3570 0001481 280.6142  79.4551 15.50577342  4836"
      },
      "geometry": {
        "type": "Point",
        "coordinates": [
          -148.10595477167286,
          42.21906697265811
        ]
      }
    }
  ]
}